<?xml version="1.0" encoding="UTF-8"?>
<gpx version="1.1" creator="Timeline-GPX-Exporter" schemaLocation="http://www.topografix.com/GPX/1/1 http://www.topografix.com/GPX/1/1/gpx.xsd http://www.garmin.com/xmlschemas/GpxExtensions/v3 http://www.garmin.com/xmlschemas/GpxExtensionsv3.xsd http://www.garmin.com/xmlschemas/TrackPointExtension/v1 http://www.garmin.com/xmlschemas/TrackPointExtensionv1.xsd http://www.garmin.com/xmlschemas/PowerExtension/v1 http://www.garmin.com/xmlschemas/PowerExtensionv1.xsd http://www.topografix.com/GPX/gpx_style/0/2 http://www.topografix.com/GPX/gpx_style/0/2/gpx_style.xsd" xmlns="http://www.topografix.com/GPX/1/1" xmlns:xsi="http://www.w3.org/2001/XMLSchema-instance" xsi:schemaLocation="http://www.topografix.com/GPX/1/1 http://www.topografix.com/GPX/1/1/gpx.xsd http://www.garmin.com/xmlschemas/GpxExtensions/v3 http://www.garmin.com/xmlschemas/GpxExtensionsv3.xsd http://www.garmin.com/xmlschemas/TrackPointExtension/v1 http://www.garmin.com/xmlschemas/TrackPointExtensionv1.xsd http://www.garmin.com/xmlschemas/PowerExtension/v1 http://www.garmin.com/xmlschemas/PowerExtensionv1.xsd http://www.topografix.com/GPX/gpx_style/0/2 http://www.topografix.com/GPX/gpx_style/0/2/gpx_style.xsd" xmlns:gpxtpx="http://www.garmin.com/xmlschemas/TrackPointExtension/v1" xmlns:gpxx="http://www.garmin.com/xmlschemas/GpxExtensions/v3" xmlns:gpxpx="http://www.garmin.com/xmlschemas/PowerExtension/v1" xmlns:gpx_style="http://www.topografix.com/GPX/gpx_style/0/2">
  <metadata>
    <name>output</name>
    <author>
      <name>gpx.studio</name>
      <link href="https://gpx.studio"/>
    </author>
  </metadata>
  <trk>
    <name>output.gpx</name>
    <trkseg>
      <trkpt lat="41.76591" lon="-81.181799">
        <time>2026-02-12T17:59:00.000Z</time>
      </trkpt>
      <trkpt lat="41.768546" lon="-81.180849">
        <time>2026-02-12T18:00:00.000Z</time>
      </trkpt>
      <trkpt lat="41.771213" lon="-81.180546">
        <time>2026-02-12T18:00:00.000Z</time>
      </trkpt>
      <trkpt lat="41.771186" lon="-81.180341">
        <time>2026-02-12T18:03:00.000Z</time>
      </trkpt>
      <trkpt lat="41.770666" lon="-81.180416">
        <time>2026-02-12T20:28:00.000Z</time>
      </trkpt>
      <trkpt lat="41.771291" lon="-81.180206">
        <time>2026-02-12T22:30:00.000Z</time>
      </trkpt>
      <trkpt lat="41.76648" lon="-81.18118">
        <time>2026-02-12T22:32:00.000Z</time>
      </trkpt>
      <trkpt lat="41.762525" lon="-81.187651">
        <time>2026-02-12T22:33:00.000Z</time>
      </trkpt>
      <trkpt lat="41.755541" lon="-81.200842">
        <time>2026-02-12T22:34:00.000Z</time>
      </trkpt>
      <trkpt lat="41.748768" lon="-81.213399">
        <time>2026-02-12T22:35:00.000Z</time>
      </trkpt>
      <trkpt lat="41.740546" lon="-81.233374">
        <time>2026-02-12T22:36:00.000Z</time>
      </trkpt>
      <trkpt lat="41.736846" lon="-81.251665">
        <time>2026-02-12T22:37:00.000Z</time>
      </trkpt>
      <trkpt lat="41.72646" lon="-81.266849">
        <time>2026-02-12T22:38:00.000Z</time>
      </trkpt>
      <trkpt lat="41.720143" lon="-81.290436">
        <time>2026-02-12T22:39:00.000Z</time>
      </trkpt>
      <trkpt lat="41.71354" lon="-81.307808">
        <time>2026-02-12T22:40:00.000Z</time>
      </trkpt>
      <trkpt lat="41.701049" lon="-81.317939">
        <time>2026-02-12T22:41:00.000Z</time>
      </trkpt>
      <trkpt lat="41.690372" lon="-81.331042">
        <time>2026-02-12T22:42:00.000Z</time>
      </trkpt>
      <trkpt lat="41.68557" lon="-81.344685">
        <time>2026-02-12T22:43:00.000Z</time>
      </trkpt>
      <trkpt lat="41.675605" lon="-81.364561">
        <time>2026-02-12T22:44:00.000Z</time>
      </trkpt>
      <trkpt lat="41.664885" lon="-81.378274">
        <time>2026-02-12T22:45:00.000Z</time>
      </trkpt>
      <trkpt lat="41.656607" lon="-81.393767">
        <time>2026-02-12T22:46:00.000Z</time>
      </trkpt>
      <trkpt lat="41.648798" lon="-81.416907">
        <time>2026-02-12T22:47:00.000Z</time>
      </trkpt>
      <trkpt lat="41.639164" lon="-81.431427">
        <time>2026-02-12T22:48:00.000Z</time>
      </trkpt>
      <trkpt lat="41.630972" lon="-81.447544">
        <time>2026-02-12T22:49:00.000Z</time>
      </trkpt>
      <trkpt lat="41.622523" lon="-81.463431">
        <time>2026-02-12T22:50:00.000Z</time>
      </trkpt>
      <trkpt lat="41.614433" lon="-81.479561">
        <time>2026-02-12T22:51:00.000Z</time>
      </trkpt>
      <trkpt lat="41.606422" lon="-81.495638">
        <time>2026-02-12T22:52:00.000Z</time>
      </trkpt>
      <trkpt lat="41.594425" lon="-81.514819">
        <time>2026-02-12T22:53:00.000Z</time>
      </trkpt>
      <trkpt lat="41.585675" lon="-81.530464">
        <time>2026-02-12T22:54:00.000Z</time>
      </trkpt>
      <trkpt lat="41.578387" lon="-81.54772">
        <time>2026-02-12T22:55:00.000Z</time>
      </trkpt>
      <trkpt lat="41.571086" lon="-81.566489">
        <time>2026-02-12T22:56:00.000Z</time>
      </trkpt>
      <trkpt lat="41.565092" lon="-81.585375">
        <time>2026-02-12T22:57:00.000Z</time>
      </trkpt>
      <trkpt lat="41.557654" lon="-81.594403">
        <time>2026-02-12T22:58:00.000Z</time>
      </trkpt>
      <trkpt lat="41.546845" lon="-81.612768">
        <time>2026-02-12T22:59:00.000Z</time>
      </trkpt>
      <trkpt lat="41.539215" lon="-81.632631">
        <time>2026-02-12T23:00:00.000Z</time>
      </trkpt>
      <trkpt lat="41.531846" lon="-81.649275">
        <time>2026-02-12T23:01:00.000Z</time>
      </trkpt>
      <trkpt lat="41.523071" lon="-81.665708">
        <time>2026-02-12T23:02:00.000Z</time>
      </trkpt>
      <trkpt lat="41.512562" lon="-81.673103">
        <time>2026-02-12T23:03:00.000Z</time>
      </trkpt>
      <trkpt lat="41.508237" lon="-81.671646">
        <time>2026-02-12T23:04:00.000Z</time>
      </trkpt>
      <trkpt lat="41.504158" lon="-81.672839">
        <time>2026-02-12T23:08:00.000Z</time>
      </trkpt>
      <trkpt lat="41.503819" lon="-81.673333">
        <time>2026-02-12T23:09:00.000Z</time>
      </trkpt>
      <trkpt lat="41.503755" lon="-81.673879">
        <time>2026-02-12T23:10:00.000Z</time>
      </trkpt>
      <trkpt lat="41.502181" lon="-81.674653">
        <time>2026-02-12T23:13:00.000Z</time>
      </trkpt>
      <trkpt lat="41.502018" lon="-81.674789">
        <time>2026-02-12T23:16:00.000Z</time>
      </trkpt>
      <trkpt lat="41.502567" lon="-81.674675">
        <time>2026-02-13T00:09:00.000Z</time>
      </trkpt>
      <trkpt lat="41.503177" lon="-81.674817">
        <time>2026-02-13T00:10:00.000Z</time>
      </trkpt>
      <trkpt lat="41.503524" lon="-81.674807">
        <time>2026-02-13T00:14:00.000Z</time>
      </trkpt>
      <trkpt lat="41.503934" lon="-81.674874">
        <time>2026-02-13T00:16:00.000Z</time>
      </trkpt>
      <trkpt lat="41.503975" lon="-81.673962">
        <time>2026-02-13T00:17:00.000Z</time>
      </trkpt>
      <trkpt lat="41.50481" lon="-81.67413">
        <time>2026-02-13T00:18:00.000Z</time>
      </trkpt>
      <trkpt lat="41.505005" lon="-81.673599">
        <time>2026-02-13T00:19:00.000Z</time>
      </trkpt>
      <trkpt lat="41.505141" lon="-81.673128">
        <time>2026-02-13T00:20:00.000Z</time>
      </trkpt>
      <trkpt lat="41.505495" lon="-81.673251">
        <time>2026-02-13T00:21:00.000Z</time>
      </trkpt>
      <trkpt lat="41.505712" lon="-81.673184">
        <time>2026-02-13T00:22:00.000Z</time>
      </trkpt>
      <trkpt lat="41.50491" lon="-81.672898">
        <time>2026-02-13T00:27:00.000Z</time>
      </trkpt>
      <trkpt lat="41.504587" lon="-81.666885">
        <time>2026-02-13T00:29:00.000Z</time>
      </trkpt>
      <trkpt lat="41.505089" lon="-81.65992">
        <time>2026-02-13T00:30:00.000Z</time>
      </trkpt>
      <trkpt lat="41.505622" lon="-81.655877">
        <time>2026-02-13T00:31:00.000Z</time>
      </trkpt>
      <trkpt lat="41.506572" lon="-81.64618">
        <time>2026-02-13T00:32:00.000Z</time>
      </trkpt>
      <trkpt lat="41.506067" lon="-81.642157">
        <time>2026-02-13T00:33:00.000Z</time>
      </trkpt>
      <trkpt lat="41.505848" lon="-81.631363">
        <time>2026-02-13T00:34:00.000Z</time>
      </trkpt>
      <trkpt lat="41.505669" lon="-81.626435">
        <time>2026-02-13T00:35:00.000Z</time>
      </trkpt>
      <trkpt lat="41.505524" lon="-81.618029">
        <time>2026-02-13T00:36:00.000Z</time>
      </trkpt>
      <trkpt lat="41.505363" lon="-81.614343">
        <time>2026-02-13T00:37:00.000Z</time>
      </trkpt>
      <trkpt lat="41.50537" lon="-81.612853">
        <time>2026-02-13T00:38:00.000Z</time>
      </trkpt>
      <trkpt lat="41.505933" lon="-81.609023">
        <time>2026-02-13T00:39:00.000Z</time>
      </trkpt>
      <trkpt lat="41.509161" lon="-81.604866">
        <time>2026-02-13T00:42:00.000Z</time>
      </trkpt>
      <trkpt lat="41.510966" lon="-81.602258">
        <time>2026-02-13T00:43:00.000Z</time>
      </trkpt>
      <trkpt lat="41.510973" lon="-81.602267">
        <time>2026-02-13T00:44:00.000Z</time>
      </trkpt>
      <trkpt lat="41.510983" lon="-81.602281">
        <time>2026-02-13T00:46:00.000Z</time>
      </trkpt>
      <trkpt lat="41.509908" lon="-81.604156">
        <time>2026-02-13T00:48:00.000Z</time>
      </trkpt>
      <trkpt lat="41.506843" lon="-81.607961">
        <time>2026-02-13T00:49:00.000Z</time>
      </trkpt>
      <trkpt lat="41.504568" lon="-81.611003">
        <time>2026-02-13T00:50:00.000Z</time>
      </trkpt>
      <trkpt lat="41.50211" lon="-81.608861">
        <time>2026-02-13T00:51:00.000Z</time>
      </trkpt>
      <trkpt lat="41.499483" lon="-81.601713">
        <time>2026-02-13T00:53:00.000Z</time>
      </trkpt>
      <trkpt lat="41.501054" lon="-81.594994">
        <time>2026-02-13T00:54:00.000Z</time>
      </trkpt>
      <trkpt lat="41.49703" lon="-81.594579">
        <time>2026-02-13T00:55:00.000Z</time>
      </trkpt>
      <trkpt lat="41.494836" lon="-81.599593">
        <time>2026-02-13T00:56:00.000Z</time>
      </trkpt>
      <trkpt lat="41.49734" lon="-81.604797">
        <time>2026-02-13T00:57:00.000Z</time>
      </trkpt>
      <trkpt lat="41.503233" lon="-81.609541">
        <time>2026-02-13T00:58:00.000Z</time>
      </trkpt>
      <trkpt lat="41.505533" lon="-81.616481">
        <time>2026-02-13T00:59:00.000Z</time>
      </trkpt>
      <trkpt lat="41.505836" lon="-81.624141">
        <time>2026-02-13T01:00:00.000Z</time>
      </trkpt>
      <trkpt lat="41.506166" lon="-81.6345">
        <time>2026-02-13T01:01:00.000Z</time>
      </trkpt>
      <trkpt lat="41.506163" lon="-81.641861">
        <time>2026-02-13T01:02:00.000Z</time>
      </trkpt>
      <trkpt lat="41.506314" lon="-81.650759">
        <time>2026-02-13T01:03:00.000Z</time>
      </trkpt>
      <trkpt lat="41.504836" lon="-81.662977">
        <time>2026-02-13T01:04:00.000Z</time>
      </trkpt>
      <trkpt lat="41.504433" lon="-81.669916">
        <time>2026-02-13T01:05:00.000Z</time>
      </trkpt>
      <trkpt lat="41.505438" lon="-81.673197">
        <time>2026-02-13T01:06:00.000Z</time>
      </trkpt>
      <trkpt lat="41.505617" lon="-81.673235">
        <time>2026-02-13T01:09:00.000Z</time>
      </trkpt>
      <trkpt lat="41.505631" lon="-81.673238">
        <time>2026-02-13T01:10:00.000Z</time>
      </trkpt>
      <trkpt lat="41.504527" lon="-81.672973">
        <time>2026-02-13T01:13:00.000Z</time>
      </trkpt>
      <trkpt lat="41.504108" lon="-81.672863">
        <time>2026-02-13T01:15:00.000Z</time>
      </trkpt>
      <trkpt lat="41.503534" lon="-81.672589">
        <time>2026-02-13T01:16:00.000Z</time>
      </trkpt>
      <trkpt lat="41.503701" lon="-81.673122">
        <time>2026-02-13T01:19:00.000Z</time>
      </trkpt>
      <trkpt lat="41.502323" lon="-81.673607">
        <time>2026-02-13T01:26:00.000Z</time>
      </trkpt>
      <trkpt lat="41.502195" lon="-81.673718">
        <time>2026-02-13T01:29:00.000Z</time>
      </trkpt>
      <trkpt lat="41.502366" lon="-81.674156">
        <time>2026-02-13T01:33:00.000Z</time>
      </trkpt>
      <trkpt lat="41.502233" lon="-81.674988">
        <time>2026-02-13T01:34:00.000Z</time>
      </trkpt>
      <trkpt lat="41.502381" lon="-81.674168">
        <time>2026-02-13T01:36:00.000Z</time>
      </trkpt>
      <trkpt lat="41.502754" lon="-81.674755">
        <time>2026-02-13T01:37:00.000Z</time>
      </trkpt>
      <trkpt lat="41.503129" lon="-81.675458">
        <time>2026-02-13T01:39:00.000Z</time>
      </trkpt>
      <trkpt lat="41.503039" lon="-81.674913">
        <time>2026-02-13T01:44:00.000Z</time>
      </trkpt>
      <trkpt lat="41.503202" lon="-81.675015">
        <time>2026-02-13T01:46:00.000Z</time>
      </trkpt>
      <trkpt lat="41.503773" lon="-81.675318">
        <time>2026-02-13T01:47:00.000Z</time>
      </trkpt>
      <trkpt lat="41.503783" lon="-81.67477">
        <time>2026-02-13T01:48:00.000Z</time>
      </trkpt>
      <trkpt lat="41.50424" lon="-81.674524">
        <time>2026-02-13T01:50:00.000Z</time>
      </trkpt>
      <trkpt lat="41.504314" lon="-81.673926">
        <time>2026-02-13T01:51:00.000Z</time>
      </trkpt>
      <trkpt lat="41.504706" lon="-81.673622">
        <time>2026-02-13T01:52:00.000Z</time>
      </trkpt>
      <trkpt lat="41.504854" lon="-81.673641">
        <time>2026-02-13T01:53:00.000Z</time>
      </trkpt>
      <trkpt lat="41.505381" lon="-81.673077">
        <time>2026-02-13T01:55:00.000Z</time>
      </trkpt>
      <trkpt lat="41.505646" lon="-81.6732">
        <time>2026-02-13T01:56:00.000Z</time>
      </trkpt>
      <trkpt lat="41.505661" lon="-81.673231">
        <time>2026-02-13T01:57:00.000Z</time>
      </trkpt>
      <trkpt lat="41.505026" lon="-81.672912">
        <time>2026-02-13T02:36:00.000Z</time>
      </trkpt>
      <trkpt lat="41.504209" lon="-81.67053">
        <time>2026-02-13T02:37:00.000Z</time>
      </trkpt>
      <trkpt lat="41.50495" lon="-81.66096">
        <time>2026-02-13T02:38:00.000Z</time>
      </trkpt>
      <trkpt lat="41.505703" lon="-81.655231">
        <time>2026-02-13T02:39:00.000Z</time>
      </trkpt>
      <trkpt lat="41.506627" lon="-81.64783">
        <time>2026-02-13T02:40:00.000Z</time>
      </trkpt>
      <trkpt lat="41.505934" lon="-81.6412">
        <time>2026-02-13T02:41:00.000Z</time>
      </trkpt>
      <trkpt lat="41.50568" lon="-81.62776">
        <time>2026-02-13T02:42:00.000Z</time>
      </trkpt>
      <trkpt lat="41.505676" lon="-81.624587">
        <time>2026-02-13T02:43:00.000Z</time>
      </trkpt>
      <trkpt lat="41.505444" lon="-81.616343">
        <time>2026-02-13T02:44:00.000Z</time>
      </trkpt>
      <trkpt lat="41.50533" lon="-81.612583">
        <time>2026-02-13T02:45:00.000Z</time>
      </trkpt>
      <trkpt lat="41.506419" lon="-81.608358">
        <time>2026-02-13T02:46:00.000Z</time>
      </trkpt>
      <trkpt lat="41.510934" lon="-81.602722">
        <time>2026-02-13T02:48:00.000Z</time>
      </trkpt>
      <trkpt lat="41.511207" lon="-81.60213">
        <time>2026-02-13T02:51:00.000Z</time>
      </trkpt>
      <trkpt lat="41.511232" lon="-81.602226">
        <time>2026-02-13T03:13:00.000Z</time>
      </trkpt>
      <trkpt lat="41.511275" lon="-81.601586">
        <time>2026-02-13T03:55:00.000Z</time>
      </trkpt>
      <trkpt lat="41.511268" lon="-81.602234">
        <time>2026-02-13T03:58:00.000Z</time>
      </trkpt>
      <trkpt lat="41.511289" lon="-81.602115">
        <time>2026-02-13T04:34:00.000Z</time>
      </trkpt>
      <trkpt lat="41.511445" lon="-81.601404">
        <time>2026-02-13T05:02:00.000Z</time>
      </trkpt>
      <trkpt lat="41.511264" lon="-81.602082">
        <time>2026-02-13T05:03:00.000Z</time>
      </trkpt>
      <trkpt lat="41.511407" lon="-81.601283">
        <time>2026-02-13T05:04:00.000Z</time>
      </trkpt>
      <trkpt lat="41.510962" lon="-81.602433">
        <time>2026-02-13T05:23:00.000Z</time>
      </trkpt>
      <trkpt lat="41.511426" lon="-81.602126">
        <time>2026-02-13T05:32:00.000Z</time>
      </trkpt>
      <trkpt lat="41.517204" lon="-81.597412">
        <time>2026-02-13T05:33:00.000Z</time>
      </trkpt>
      <trkpt lat="41.522774" lon="-81.600793">
        <time>2026-02-13T05:34:00.000Z</time>
      </trkpt>
      <trkpt lat="41.53078" lon="-81.601747">
        <time>2026-02-13T05:36:00.000Z</time>
      </trkpt>
      <trkpt lat="41.534873" lon="-81.599416">
        <time>2026-02-13T05:38:00.000Z</time>
      </trkpt>
      <trkpt lat="41.546216" lon="-81.601228">
        <time>2026-02-13T05:41:00.000Z</time>
      </trkpt>
      <trkpt lat="41.551459" lon="-81.602144">
        <time>2026-02-13T05:42:00.000Z</time>
      </trkpt>
      <trkpt lat="41.559632" lon="-81.59315">
        <time>2026-02-13T05:43:00.000Z</time>
      </trkpt>
      <trkpt lat="41.568461" lon="-81.572936">
        <time>2026-02-13T05:44:00.000Z</time>
      </trkpt>
      <trkpt lat="41.57279" lon="-81.55996">
        <time>2026-02-13T05:45:00.000Z</time>
      </trkpt>
      <trkpt lat="41.580895" lon="-81.540533">
        <time>2026-02-13T05:46:00.000Z</time>
      </trkpt>
      <trkpt lat="41.589678" lon="-81.522303">
        <time>2026-02-13T05:47:00.000Z</time>
      </trkpt>
      <trkpt lat="41.599391" lon="-81.506203">
        <time>2026-02-13T05:48:00.000Z</time>
      </trkpt>
      <trkpt lat="41.606888" lon="-81.49254">
        <time>2026-02-13T05:49:00.000Z</time>
      </trkpt>
      <trkpt lat="41.617871" lon="-81.471923">
        <time>2026-02-13T05:50:00.000Z</time>
      </trkpt>
      <trkpt lat="41.626879" lon="-81.454684">
        <time>2026-02-13T05:51:00.000Z</time>
      </trkpt>
      <trkpt lat="41.636316" lon="-81.436566">
        <time>2026-02-13T05:52:00.000Z</time>
      </trkpt>
      <trkpt lat="41.643374" lon="-81.424215">
        <time>2026-02-13T05:53:00.000Z</time>
      </trkpt>
      <trkpt lat="41.65462" lon="-81.405528">
        <time>2026-02-13T05:54:00.000Z</time>
      </trkpt>
      <trkpt lat="41.658614" lon="-81.386414">
        <time>2026-02-13T05:55:00.000Z</time>
      </trkpt>
      <trkpt lat="41.66284" lon="-81.379571">
        <time>2026-02-13T05:56:00.000Z</time>
      </trkpt>
      <trkpt lat="41.659455" lon="-81.377375">
        <time>2026-02-13T05:57:00.000Z</time>
      </trkpt>
      <trkpt lat="41.659603" lon="-81.376939">
        <time>2026-02-13T05:58:00.000Z</time>
      </trkpt>
      <trkpt lat="41.659522" lon="-81.377254">
        <time>2026-02-13T06:04:00.000Z</time>
      </trkpt>
      <trkpt lat="41.667681" lon="-81.374341">
        <time>2026-02-13T06:28:00.000Z</time>
      </trkpt>
      <trkpt lat="41.678272" lon="-81.360832">
        <time>2026-02-13T06:29:00.000Z</time>
      </trkpt>
      <trkpt lat="41.685963" lon="-81.34134">
        <time>2026-02-13T06:30:00.000Z</time>
      </trkpt>
      <trkpt lat="41.691812" lon="-81.328514">
        <time>2026-02-13T06:31:00.000Z</time>
      </trkpt>
      <trkpt lat="41.706448" lon="-81.313307">
        <time>2026-02-13T06:32:00.000Z</time>
      </trkpt>
      <trkpt lat="41.717679" lon="-81.298715">
        <time>2026-02-13T06:33:00.000Z</time>
      </trkpt>
      <trkpt lat="41.707251" lon="-81.272799">
        <time>2026-02-13T06:36:00.000Z</time>
      </trkpt>
      <trkpt lat="41.702442" lon="-81.279893">
        <time>2026-02-13T06:37:00.000Z</time>
      </trkpt>
      <trkpt lat="41.699263" lon="-81.288221">
        <time>2026-02-13T06:38:00.000Z</time>
      </trkpt>
      <trkpt lat="41.692591" lon="-81.291769">
        <time>2026-02-13T06:39:00.000Z</time>
      </trkpt>
      <trkpt lat="41.692084" lon="-81.291532">
        <time>2026-02-13T06:40:00.000Z</time>
      </trkpt>
      <trkpt lat="41.692084" lon="-81.291532">
        <time>2026-02-13T06:43:00.000Z</time>
      </trkpt>
      <trkpt lat="41.692138" lon="-81.291496">
        <time>2026-02-13T08:46:00.000Z</time>
      </trkpt>
    </trkseg>
  </trk>
</gpx>
